start=new Date('2023-04-23T00:00:00.000Z').valueOf();
sats=[{"ARG_OF_PERICENTER":"269.0586","SITE":"AFETR","BSTAR":"0.00275410000000","MEAN_ANOMALY":"331.8262","MEAN_ELEMENT_THEORY":"SGP4","ECCENTRICITY":"0.00018020","DECAY_DATE":null,"INCLINATION":"43.0009","NORAD_CAT_ID":"55353","CLASSIFICATION_TYPE":"U","PERIAPSIS":"557.946","EPOCH":"2023-04-22T22:00:01.999584","RA_OF_ASC_NODE":"254.9516","OBJECT_ID":"2023-013Y","MEAN_MOTION_DDOT":"0.0000000000000","RCS_SIZE":"LARGE","TIME_SYSTEM":"UTC","APOAPSIS":"560.446","OBJECT_TYPE":"PAYLOAD","CENTER_NAME":"EARTH","LAUNCH_DATE":"2023-01-26","OBJECT_NAME":"STARLINK-5608","TLE_LINE1":"1 55353U 23013Y   23112.91668981  .00037161  00000-0  27541-2 0  9996","SEMIMAJOR_AXIS":"6937.331","ELEMENT_SET_NO":"999","REV_AT_EPOCH":"130","EPHEMERIS_TYPE":"0","REF_FRAME":"TEME","GP_ID":"230597226","TLE_LINE2":"2 55353  43.0009 254.9516 0001802 269.0586 331.8262 15.02498906  1301","MEAN_MOTION":"15.02498906","FILE":"3892285","COUNTRY_CODE":"US","PERIOD":"95.840","MEAN_MOTION_DOT":"0.00037161"},{"REF_FRAME":"TEME","GP_ID":"230597476","TLE_LINE2":"2 55354  43.0036 256.4212 0000951 264.3261  95.7473 15.02539899 13461","REV_AT_EPOCH":"1346","EPHEMERIS_TYPE":"0","FILE":"3892285","MEAN_MOTION_DOT":"0.00002472","PERIOD":"95.838","COUNTRY_CODE":"US","MEAN_MOTION":"15.02539899","LAUNCH_DATE":"2023-01-26","CENTER_NAME":"EARTH","OBJECT_TYPE":"PAYLOAD","ELEMENT_SET_NO":"999","OBJECT_NAME":"STARLINK-5649","TLE_LINE1":"1 55354U 23013Z   23112.69165481  .00002472  00000-0  19798-3 0  9992","SEMIMAJOR_AXIS":"6937.205","OBJECT_ID":"2023-013Z","RCS_SIZE":"LARGE","MEAN_MOTION_DDOT":"0.0000000000000","EPOCH":"2023-04-22T16:35:58.975584","RA_OF_ASC_NODE":"256.4212","PERIAPSIS":"558.410","TIME_SYSTEM":"UTC","APOAPSIS":"559.729","SITE":"AFETR","BSTAR":"0.00019798000000","MEAN_ELEMENT_THEORY":"SGP4","MEAN_ANOMALY":"95.7473","ARG_OF_PERICENTER":"264.3261","CLASSIFICATION_TYPE":"U","ECCENTRICITY":"0.00009510","DECAY_DATE":null,"INCLINATION":"43.0036","NORAD_CAT_ID":"55354"},{"ELEMENT_SET_NO":"999","TLE_LINE1":"1 55355U 23013AA  23112.91668981  .00054461  00000-0  40166-2 0  9998","SEMIMAJOR_AXIS":"6937.251","OBJECT_NAME":"STARLINK-5647","LAUNCH_DATE":"2023-01-26","CENTER_NAME":"EARTH","OBJECT_TYPE":"PAYLOAD","PERIOD":"95.839","MEAN_MOTION_DOT":"0.00054461","COUNTRY_CODE":"US","FILE":"3892285","MEAN_MOTION":"15.02524850","TLE_LINE2":"2 55355  43.0008 255.0963 0001433 275.7669 264.8696 15.02524850  1300","GP_ID":"230598228","REF_FRAME":"TEME","REV_AT_EPOCH":"130","EPHEMERIS_TYPE":"0","CLASSIFICATION_TYPE":"U","DECAY_DATE":null,"INCLINATION":"43.0008","NORAD_CAT_ID":"55355","ECCENTRICITY":"0.00014330","MEAN_ELEMENT_THEORY":"SGP4","MEAN_ANOMALY":"264.8696","SITE":"AFETR","BSTAR":"0.00401660000000","ARG_OF_PERICENTER":"275.7669","APOAPSIS":"560.110","TIME_SYSTEM":"UTC","RCS_SIZE":"LARGE","MEAN_MOTION_DDOT":"0.0000000000000","OBJECT_ID":"2023-013AA","EPOCH":"2023-04-22T22:00:01.999584","RA_OF_ASC_NODE":"255.0963","PERIAPSIS":"558.122"},{"ARG_OF_PERICENTER":"272.4371","BSTAR":"0.00006468900000","SITE":"AFETR","MEAN_ANOMALY":"87.6305","MEAN_ELEMENT_THEORY":"SGP4","ECCENTRICITY":"0.00014520","DECAY_DATE":null,"INCLINATION":"43.0003","NORAD_CAT_ID":"55357","CLASSIFICATION_TYPE":"U","PERIAPSIS":"558.051","RA_OF_ASC_NODE":"255.9698","EPOCH":"2023-04-22T17:55:43.473216","OBJECT_ID":"2023-013AC","MEAN_MOTION_DDOT":"0.0000000000000","RCS_SIZE":"LARGE","TIME_SYSTEM":"UTC","APOAPSIS":"560.065","OBJECT_TYPE":"PAYLOAD","CENTER_NAME":"EARTH","LAUNCH_DATE":"2023-01-26","OBJECT_NAME":"STARLINK-5651","TLE_LINE1":"1 55357U 23013AC  23112.74703094  .00000670  00000-0  64689-4 0  9997","SEMIMAJOR_AXIS":"6937.193","ELEMENT_SET_NO":"999","REV_AT_EPOCH":"1347","EPHEMERIS_TYPE":"0","REF_FRAME":"TEME","GP_ID":"230597979","TLE_LINE2":"2 55357  43.0003 255.9698 0001452 272.4371  87.6305 15.02543716 13477","MEAN_MOTION":"15.02543716","FILE":"3892285","COUNTRY_CODE":"US","PERIOD":"95.837","MEAN_MOTION_DOT":"0.00000670"},{"GP_ID":"230567706","TLE_LINE2":"2 55358  43.0006 255.1241 0001575 280.5040 248.2295 15.02503953 13928","REF_FRAME":"TEME","REV_AT_EPOCH":"1392","EPHEMERIS_TYPE":"0","MEAN_MOTION_DOT":"0.00044638","PERIOD":"95.840","COUNTRY_CODE":"US","FILE":"3892097","MEAN_MOTION":"15.02503953","CENTER_NAME":"EARTH","LAUNCH_DATE":"2023-01-26","OBJECT_TYPE":"PAYLOAD","ELEMENT_SET_NO":"999","SEMIMAJOR_AXIS":"6937.315","TLE_LINE1":"1 55358U 23013AD  23112.91668981  .00044638  00000-0  33013-2 0  9999","OBJECT_NAME":"STARLINK-5622","RCS_SIZE":"LARGE","MEAN_MOTION_DDOT":"0.0000000000000","OBJECT_ID":"2023-013AD","RA_OF_ASC_NODE":"255.1241","EPOCH":"2023-04-22T22:00:01.999584","PERIAPSIS":"558.088","TIME_SYSTEM":"UTC","APOAPSIS":"560.273","MEAN_ELEMENT_THEORY":"SGP4","MEAN_ANOMALY":"248.2295","BSTAR":"0.00330130000000","SITE":"AFETR","ARG_OF_PERICENTER":"280.5040","CLASSIFICATION_TYPE":"U","NORAD_CAT_ID":"55358","DECAY_DATE":null,"INCLINATION":"43.0006","ECCENTRICITY":"0.00015750"},{"TIME_SYSTEM":"UTC","APOAPSIS":"560.014","MEAN_MOTION_DDOT":"0.0000000000000","RCS_SIZE":"LARGE","OBJECT_ID":"2023-013AE","PERIAPSIS":"558.134","RA_OF_ASC_NODE":"255.5925","EPOCH":"2023-04-22T19:28:15.754080","CLASSIFICATION_TYPE":"U","INCLINATION":"43.0002","DECAY_DATE":null,"NORAD_CAT_ID":"55359","ECCENTRICITY":"0.00013550","MEAN_ANOMALY":"96.8896","MEAN_ELEMENT_THEORY":"SGP4","SITE":"AFETR","BSTAR":"0.00005533700000","ARG_OF_PERICENTER":"263.1792","COUNTRY_CODE":"US","PERIOD":"95.838","MEAN_MOTION_DOT":"0.00000544","FILE":"3892285","MEAN_MOTION":"15.02538419","TLE_LINE2":"2 55359  43.0002 255.5925 0001355 263.1792  96.8896 15.02538419 13485","GP_ID":"230596977","REF_FRAME":"TEME","REV_AT_EPOCH":"1348","EPHEMERIS_TYPE":"0","ELEMENT_SET_NO":"999","TLE_LINE1":"1 55359U 23013AE  23112.81129345  .00000544  00000-0  55337-4 0  9998","SEMIMAJOR_AXIS":"6937.209","OBJECT_NAME":"STARLINK-5641","LAUNCH_DATE":"2023-01-26","CENTER_NAME":"EARTH","OBJECT_TYPE":"PAYLOAD"},{"APOAPSIS":"560.202","TIME_SYSTEM":"UTC","RCS_SIZE":"LARGE","MEAN_MOTION_DDOT":"0.0000000000000","OBJECT_ID":"2023-013AF","EPOCH":"2023-04-22T17:29:46.686912","RA_OF_ASC_NODE":"268.8277","PERIAPSIS":"557.868","CLASSIFICATION_TYPE":"U","NORAD_CAT_ID":"55360","DECAY_DATE":null,"INCLINATION":"43.0031","ECCENTRICITY":"0.00016820","MEAN_ELEMENT_THEORY":"SGP4","MEAN_ANOMALY":"89.5642","SITE":"AFETR","BSTAR":"0.00041994000000","ARG_OF_PERICENTER":"270.5008","PERIOD":"95.837","MEAN_MOTION_DOT":"0.00005476","COUNTRY_CODE":"US","FILE":"3892285","MEAN_MOTION":"15.02551099","GP_ID":"230597729","TLE_LINE2":"2 55360  43.0031 268.8277 0001682 270.5008  89.5642 15.02551099 13321","REF_FRAME":"TEME","REV_AT_EPOCH":"1332","EPHEMERIS_TYPE":"0","ELEMENT_SET_NO":"999","SEMIMAJOR_AXIS":"6937.170","TLE_LINE1":"1 55360U 23013AF  23112.72901258  .00005476  00000-0  41994-3 0  9993","OBJECT_NAME":"STARLINK-5664","CENTER_NAME":"EARTH","LAUNCH_DATE":"2023-01-26","OBJECT_TYPE":"PAYLOAD"},{"MEAN_MOTION_DDOT":"0.0000000000000","RCS_SIZE":"LARGE","OBJECT_ID":"2023-013AG","PERIAPSIS":"465.563","EPOCH":"2023-04-22T22:00:01.999584","RA_OF_ASC_NODE":"244.6208","APOAPSIS":"467.310","TIME_SYSTEM":"UTC","MEAN_ANOMALY":"272.2838","MEAN_ELEMENT_THEORY":"SGP4","BSTAR":"-0.03126100000000","SITE":"AFETR","ARG_OF_PERICENTER":"274.4342","CLASSIFICATION_TYPE":"U","DECAY_DATE":null,"NORAD_CAT_ID":"55361","INCLINATION":"42.9995","ECCENTRICITY":"0.00012760","GP_ID":"230567743","TLE_LINE2":"2 55361  42.9995 244.6208 0001276 274.4342 272.2838 15.33145539 14048","REF_FRAME":"TEME","REV_AT_EPOCH":"1404","EPHEMERIS_TYPE":"0","COUNTRY_CODE":"US","PERIOD":"93.925","MEAN_MOTION_DOT":"-0.00935302","FILE":"3892098","MEAN_MOTION":"15.33145539","CENTER_NAME":"EARTH","LAUNCH_DATE":"2023-01-26","OBJECT_TYPE":"PAYLOAD","ELEMENT_SET_NO":"999","SEMIMAJOR_AXIS":"6844.571","TLE_LINE1":"1 55361U 23013AG  23112.91668981 -.00935302  00000-0 -31261-1 0  9994","OBJECT_NAME":"STARLINK-5665"},{"FILE":"3892098","COUNTRY_CODE":"US","MEAN_MOTION_DOT":"-0.00935610","PERIOD":"93.927","MEAN_MOTION":"15.33109384","REF_FRAME":"TEME","TLE_LINE2":"2 55362  42.9994 244.6268 0001310 277.8527 266.5351 15.33109384 14049","GP_ID":"230567422","REV_AT_EPOCH":"1404","EPHEMERIS_TYPE":"0","ELEMENT_SET_NO":"999","OBJECT_NAME":"STARLINK-5574","SEMIMAJOR_AXIS":"6844.679","TLE_LINE1":"1 55362U 23013AH  23112.91668981 -.00935610  00000-0 -31308-1 0  9999","LAUNCH_DATE":"2023-01-26","CENTER_NAME":"EARTH","OBJECT_TYPE":"PAYLOAD","APOAPSIS":"467.441","TIME_SYSTEM":"UTC","OBJECT_ID":"2023-013AH","MEAN_MOTION_DDOT":"0.0000000000000","RCS_SIZE":"LARGE","PERIAPSIS":"465.647","EPOCH":"2023-04-22T22:00:01.999584","RA_OF_ASC_NODE":"244.6268","CLASSIFICATION_TYPE":"U","ECCENTRICITY":"0.00013100","DECAY_DATE":null,"NORAD_CAT_ID":"55362","INCLINATION":"42.9994","SITE":"AFETR","BSTAR":"-0.03130800000000","MEAN_ANOMALY":"266.5351","MEAN_ELEMENT_THEORY":"SGP4","ARG_OF_PERICENTER":"277.8527"},{"APOAPSIS":"559.995","TIME_SYSTEM":"UTC","PERIAPSIS":"558.116","EPOCH":"2023-04-22T16:59:35.372256","RA_OF_ASC_NODE":"269.5310","MEAN_MOTION_DDOT":"0.0000000000000","RCS_SIZE":"LARGE","OBJECT_ID":"2023-013AJ","INCLINATION":"43.0006","DECAY_DATE":null,"NORAD_CAT_ID":"55363","ECCENTRICITY":"0.00013550","CLASSIFICATION_TYPE":"U","ARG_OF_PERICENTER":"274.3252","MEAN_ANOMALY":"85.7435","MEAN_ELEMENT_THEORY":"SGP4","BSTAR":"0.00018624000000","SITE":"AFETR","MEAN_MOTION":"15.02544457","COUNTRY_CODE":"US","PERIOD":"95.837","MEAN_MOTION_DOT":"0.00002314","FILE":"3892285","EPHEMERIS_TYPE":"0","REV_AT_EPOCH":"1331","TLE_LINE2":"2 55363  43.0006 269.5310 0001355 274.3252  85.7435 15.02544457 13319","GP_ID":"230597477","REF_FRAME":"TEME","TLE_LINE1":"1 55363U 23013AJ  23112.70804829  .00002314  00000-0  18624-3 0  9992","SEMIMAJOR_AXIS":"6937.191","OBJECT_NAME":"STARLINK-5648","ELEMENT_SET_NO":"999","OBJECT_TYPE":"PAYLOAD","LAUNCH_DATE":"2023-01-26","CENTER_NAME":"EARTH"}];
